1 45854U 20041A   20278.66611092  .00000023  00000-0  10000-3 0  9992
2 45854  55.1054 111.0952 0008244 115.9174 244.2349  2.00569938  2296
